{"type": "FeatureCollection", "features": [ {"type": "Feature", "properties": {"norad_id": 35961, "name": "COSMOS 2251 DEB", "group": "cosmos-2251-debris", "lat": 1.2314618400346156, "lon": -151.379396790455, "alt_km": 984.6186976310282, "timestamp": "2025-12-10T09:57:45.094811+00:00", "meta": {"OBJECT_NAME": "COSMOS 2251 DEB", "OBJECT_ID": "1993-036AVB", "EPOCH": "2025-12-08T23:47:16.046880", "MEAN_MOTION": 14.05362993, "ECCENTRICITY": 0.0192085, "INCLINATION": 73.9243, "RA_OF_ASC_NODE": 210.7691, "ARG_OF_PERICENTER": 145.0168, "MEAN_ANOMALY": 216.3768, "EPHEMERIS_TYPE": 0, "CLASSIFICATION_TYPE": "U", "NORAD_CAT_ID": 35961, "ELEMENT_SET_NO": 999, "REV_AT_EPOCH": 62629, "BSTAR": 0.0010036, "MEAN_MOTION_DOT": 1.896e-05, "MEAN_MOTION_DDOT": 0}, "tle": {"line1": "1 35961U 93036AVB 25342.99115795  .00001896  00000+0  10036-2 0  9992", "line2": "2 35961  73.9243 210.7691 0192085 145.0168 216.3768 14.05362993626290"}}, "geometry": {"type": "Point", "coordinates": [-151.379396790455, 1.2314618400346156]}}, {"type": "Feature", "properties": {"norad_id": 35979, "name": "COSMOS 2251 DEB", "group": "cosmos-2251-debris", "lat": 31.195182549994303, "lon": -107.06900442180773, "alt_km": 604.8658920649823, "timestamp": "2025-12-10T09:57:45.094820+00:00", "meta": {"OBJECT_NAME": "COSMOS 2251 DEB", "OBJECT_ID": "1993-036AVV", "EPOCH": "2025-12-09T11:50:03.223968", "MEAN_MOTION": 14.74576302, "ECCENTRICITY": 0.00588204, "INCLINATION": 74.0104, "RA_OF_ASC_NODE": 244.7352, "ARG_OF_PERICENTER": 17.6471, "MEAN_ANOMALY": 162.3797, "EPHEMERIS_TYPE": 0, "CLASSIFICATION_TYPE": "U", "NORAD_CAT_ID": 35979, "ELEMENT_SET_NO": 999, "REV_AT_EPOCH": 88585, "BSTAR": 0.0014101379, "MEAN_MOTION_DOT": 9.639e-05, "MEAN_MOTION_DDOT": 0}, "tle": {"line1": "1 35979U 93036AVV 25343.49309287  .00009639  00000+0  14101-2 0  9998", "line2": "2 35979  74.0104 244.7352 0058820  17.6471 162.3797 14.74576302885855"}}, "geometry": {"type": "Point", "coordinates": [-107.06900442180773, 31.195182549994303]}}, {"type": "Feature", "properties": {"norad_id": 35980, "name": "COSMOS 2251 DEB", "group": "cosmos-2251-debris", "lat": 37.18640509315207, "lon": 139.80040436176745, "alt_km": 720.741622193942, "timestamp": "2025-12-10T09:57:45.094830+00:00", "meta": {"OBJECT_NAME": "COSMOS 2251 DEB", "OBJECT_ID": "1993-036AVW", "EPOCH": "2025-12-02T19:08:08.015136", "MEAN_MOTION": 14.59062146, "ECCENTRICITY": 0.00537712, "INCLINATION": 73.91, "RA_OF_ASC_NODE": 141.7735, "ARG_OF_PERICENTER": 277.5645, "MEAN_ANOMALY": 81.9413, "EPHEMERIS_TYPE": 0, "CLASSIFICATION_TYPE": "U", "NORAD_CAT_ID": 35980, "ELEMENT_SET_NO": 999, "REV_AT_EPOCH": 61341, "BSTAR": 0.002036555, "MEAN_MOTION_DOT": 9.752e-05, "MEAN_MOTION_DDOT": 0}, "tle": {"line1": "1 35980U 93036AVW 25336.79731499  .00009752  00000+0  20366-2 0  9995", "line2": "2 35980  73.9100 141.7735 0053771 277.5645  81.9413 14.59062146613413"}}, "geometry": {"type": "Point", "coordinates": [139.80040436176745, 37.18640509315207]}}, {"type": "Feature", "properties": {"norad_id": 35982, "name": "COSMOS 2251 DEB", "group": "cosmos-2251-debris", "lat": -61.82926696804145, "lon": -40.87796464860294, "alt_km": 716.8546045787189, "timestamp": "2025-12-10T09:57:45.094840+00:00", "meta": {"OBJECT_NAME": "COSMOS 2251 DEB", "OBJECT_ID": "1993-036AVY", "EPOCH": "2025-12-10T00:25:02.351712", "MEAN_MOTION": 14.62725299, "ECCENTRICITY": 0.0064071, "INCLINATION": 74.0586, "RA_OF_ASC_NODE": 352.1402, "ARG_OF_PERICENTER": 59.2783, "MEAN_ANOMALY": 301.4675, "EPHEMERIS_TYPE": 0, "CLASSIFICATION_TYPE": "U", "NORAD_CAT_ID": 35982, "ELEMENT_SET_NO": 999, "REV_AT_EPOCH": 86126, "BSTAR": 0.00075083, "MEAN_MOTION_DOT": 3.911e-05, "MEAN_MOTION_DDOT": 0}, "tle": {"line1": "1 35982U 93036AVY 25344.01738833  .00003911  00000+0  75083-3 0  9998", "line2": "2 35982  74.0586 352.1402 0064071  59.2783 301.4675 14.62725299861264"}}, "geometry": {"type": "Point", "coordinates": [-40.87796464860294, -61.82926696804145]}}, {"type": "Feature", "properties": {"norad_id": 35987, "name": "COSMOS 2251 DEB", "group": "cosmos-2251-debris", "lat": 73.9442398832646, "lon": 65.41289158196514, "alt_km": 708.2891203609215, "timestamp": "2025-12-10T09:57:45.094850+00:00", "meta": {"OBJECT_NAME": "COSMOS 2251 DEB", "OBJECT_ID": "1993-036AWD", "EPOCH": "2025-12-09T16:54:21.693600", "MEAN_MOTION": 14.43096791, "ECCENTRICITY": 0.0045937, "INCLINATION": 73.9999, "RA_OF_ASC_NODE": 332.2918, "ARG_OF_PERICENTER": 98.9143, "MEAN_ANOMALY": 261.7217, "EPHEMERIS_TYPE": 0, "CLASSIFICATION_TYPE": "U", "NORAD_CAT_ID": 35987, "ELEMENT_SET_NO": 999, "REV_AT_EPOCH": 61021, "BSTAR": 0.0015703, "MEAN_MOTION_DOT": 5.314e-05, "MEAN_MOTION_DDOT": 0}, "tle": {"line1": "1 35987U 93036AWD 25343.70441775  .00005314  00000+0  15703-2 0  9995", "line2": "2 35987  73.9999 332.2918 0045937  98.9143 261.7217 14.43096791610210"}}, "geometry": {"type": "Point", "coordinates": [65.41289158196514, 73.9442398832646]}}, {"type": "Feature", "properties": {"norad_id": 35989, "name": "COSMOS 2251 DEB", "group": "cosmos-2251-debris", "lat": -6.424582699380544, "lon": 109.95122487078905, "alt_km": 787.0786115800911, "timestamp": "2025-12-10T09:57:45.094861+00:00", "meta": {"OBJECT_NAME": "COSMOS 2251 DEB", "OBJECT_ID": "1993-036AWF", "EPOCH": "2025-12-06T04:51:17.856864", "MEAN_MOTION": 14.37086268, "ECCENTRICITY": 0.00218316, "INCLINATION": 74.0371, "RA_OF_ASC_NODE": 295.8482, "ARG_OF_PERICENTER": 19.4894, "MEAN_ANOMALY": 340.7089, "EPHEMERIS_TYPE": 0, "CLASSIFICATION_TYPE": "U", "NORAD_CAT_ID": 35989, "ELEMENT_SET_NO": 999, "REV_AT_EPOCH": 87085, "BSTAR": 0.00043011654, "MEAN_MOTION_DOT": 1.255e-05, "MEAN_MOTION_DDOT": 0}, "tle": {"line1": "1 35989U 93036AWF 25340.20229001  .00001255  00000+0  43012-3 0  9990", "line2": "2 35989  74.0371 295.8482 0021831  19.4894 340.7089 14.37086268870850"}}, "geometry": {"type": "Point", "coordinates": [109.95122487078905, -6.424582699380544]}}, {"type": "Feature", "properties": {"norad_id": 35993, "name": "COSMOS 2251 DEB", "group": "cosmos-2251-debris", "lat": -9.211350180211928, "lon": 159.9419478375576, "alt_km": 660.8975021081806, "timestamp": "2025-12-10T09:57:45.094871+00:00", "meta": {"OBJECT_NAME": "COSMOS 2251 DEB", "OBJECT_ID": "1993-036AWK", "EPOCH": "2025-12-09T16:42:55.833984", "MEAN_MOTION": 14.65265094, "ECCENTRICITY": 0.0029072, "INCLINATION": 74.0153, "RA_OF_ASC_NODE": 338.6616, "ARG_OF_PERICENTER": 169.2925, "MEAN_ANOMALY": 190.8868, "EPHEMERIS_TYPE": 0, "CLASSIFICATION_TYPE": "U", "NORAD_CAT_ID": 35993, "ELEMENT_SET_NO": 999, "REV_AT_EPOCH": 60398, "BSTAR": 0.0011875, "MEAN_MOTION_DOT": 6.416e-05, "MEAN_MOTION_DDOT": 0}, "tle": {"line1": "1 35993U 93036AWK 25343.69647956  .00006416  00000+0  11875-2 0  9999", "line2": "2 35993  74.0153 338.6616 0029072 169.2925 190.8868 14.65265094603986"}}, "geometry": {"type": "Point", "coordinates": [159.9419478375576, -9.211350180211928]}}, {"type": "Feature", "properties": {"norad_id": 35996, "name": "COSMOS 2251 DEB", "group": "cosmos-2251-debris", "lat": -73.99968091901599, "lon": 16.701792729753148, "alt_km": 524.4461565119354, "timestamp": "2025-12-10T09:57:45.094880+00:00", "meta": {"OBJECT_NAME": "COSMOS 2251 DEB", "OBJECT_ID": "1993-036AWN", "EPOCH": "2025-12-06T15:40:07.668192", "MEAN_MOTION": 15.08900528, "ECCENTRICITY": 0.00890114, "INCLINATION": 74.0155, "RA_OF_ASC_NODE": 115.9821, "ARG_OF_PERICENTER": 208.3907, "MEAN_ANOMALY": 151.2421, "EPHEMERIS_TYPE": 0, "CLASSIFICATION_TYPE": "U", "NORAD_CAT_ID": 35996, "ELEMENT_SET_NO": 999, "REV_AT_EPOCH": 72234, "BSTAR": 0.001269926, "MEAN_MOTION_DOT": 0.00021998, "MEAN_MOTION_DDOT": 0}, "tle": {"line1": "1 35996U 93036AWN 25340.65286653  .00021998  00000+0  12699-2 0  9995", "line2": "2 35996  74.0155 115.9821 0089011 208.3907 151.2421 15.08900528722343"}}, "geometry": {"type": "Point", "coordinates": [16.701792729753148, -73.99968091901599]}}, {"type": "Feature", "properties": {"norad_id": 35997, "name": "COSMOS 2251 DEB", "group": "cosmos-2251-debris", "lat": 54.07705543347912, "lon": -11.595545157244613, "alt_km": 725.0752911970876, "timestamp": "2025-12-10T09:57:45.094891+00:00", "meta": {"OBJECT_NAME": "COSMOS 2251 DEB", "OBJECT_ID": "1993-036AWP", "EPOCH": "2025-12-09T20:09:48.839040", "MEAN_MOTION": 14.51292272, "ECCENTRICITY": 0.0015736, "INCLINATION": 74.043, "RA_OF_ASC_NODE": 192.7469, "ARG_OF_PERICENTER": 268.5155, "MEAN_ANOMALY": 91.4203, "EPHEMERIS_TYPE": 0, "CLASSIFICATION_TYPE": "U", "NORAD_CAT_ID": 35997, "ELEMENT_SET_NO": 999, "REV_AT_EPOCH": 70842, "BSTAR": 0.0009348, "MEAN_MOTION_DOT": 3.7e-05, "MEAN_MOTION_DDOT": 0}, "tle": {"line1": "1 35997U 93036AWP 25343.84014860  .00003700  00000+0  93480-3 0  9998", "line2": "2 35997  74.0430 192.7469 0015736 268.5155  91.4203 14.51292272708420"}}, "geometry": {"type": "Point", "coordinates": [-11.595545157244613, 54.07705543347912]}}, {"type": "Feature", "properties": {"norad_id": 36005, "name": "COSMOS 2251 DEB", "group": "cosmos-2251-debris", "lat": -6.476864442735875, "lon": -79.78128783557928, "alt_km": 708.9503465932867, "timestamp": "2025-12-10T09:57:45.094901+00:00", "meta": {"OBJECT_NAME": "COSMOS 2251 DEB", "OBJECT_ID": "1993-036AWX", "EPOCH": "2025-12-09T18:10:04.760256", "MEAN_MOTION": 14.47350954, "ECCENTRICITY": 0.0062006, "INCLINATION": 74.0266, "RA_OF_ASC_NODE": 99.5861, "ARG_OF_PERICENTER": 237.5433, "MEAN_ANOMALY": 121.9721, "EPHEMERIS_TYPE": 0, "CLASSIFICATION_TYPE": "U", "NORAD_CAT_ID": 36005, "ELEMENT_SET_NO": 999, "REV_AT_EPOCH": 87541, "BSTAR": 0.00038618, "MEAN_MOTION_DOT": 1.421e-05, "MEAN_MOTION_DDOT": 0}, "tle": {"line1": "1 36005U 93036AWX 25343.75699954  .00001421  00000+0  38618-3 0  9992", "line2": "2 36005  74.0266  99.5861 0062006 237.5433 121.9721 14.47350954875410"}}, "geometry": {"type": "Point", "coordinates": [-79.78128783557928, -6.476864442735875]}}]}